GLOBALSTAR M068         
1 32266U 07048D   25325.90376117 -.00000061  00000+0  23928-3 0  9993
2 32266  51.9859 181.4798 0001998 101.5779   1.8038 12.62833772837484
GLOBALSTAR M079         
1 37188U 10054A   25326.14122869 -.00000089  00000+0  85072-4 0  9991
2 37188  52.0063  18.9487 0000172 158.4004 227.4163 12.62268631696401
GLOBALSTAR M074         
1 37189U 10054B   25326.33789594 -.00000121  00000+0 -95201-4 0  9990
2 37189  52.0046  17.6476 0000384  94.0019 346.0026 12.62263482697038
GLOBALSTAR M076         
1 37190U 10054C   25326.36443784 -.00000090  00000+0  74123-4 0  9997
2 37190  52.0054  17.7538 0000220  71.1357   8.1006 12.62267470696752
GLOBALSTAR M077         
1 37191U 10054D   25324.48812203 -.00000081  00000+0  52680-4 0  9999
2 37191  52.0123 350.3823 0008904  96.4865  78.3499 11.95391638696725
GLOBALSTAR M075         
1 37192U 10054E   25326.20345471 -.00000097  00000+0  38040-4 0  9991
2 37192  51.9962  60.4098 0000661 114.5855 254.1685 12.62269782695809
GLOBALSTAR M073         
1 37193U 10054F   25326.21954244 -.00000092  00000+0  66044-4 0  9997
2 37193  52.0079 334.3055 0000201  21.6849  58.4421 12.62264444697791
GLOBALSTAR M083         
1 37739U 11033A   25325.99837258 -.00000093  00000+0  62806-4 0  9993
2 37739  51.9866 283.4901 0000391  40.6425  55.8478 12.62264556666786
GLOBALSTAR M088         
1 37740U 11033B   25326.06407895 -.00000067  00000+0  20716-3 0  9998
2 37740  52.0193 189.2169 0001098  83.4816  70.6942 12.62270416662336
GLOBALSTAR M091         
1 37741U 11033C   25326.00057243 -.00000100  00000+0  20776-4 0  9996
2 37741  51.9963 152.6811 0001037 103.1495  62.0819 12.62261969663112
GLOBALSTAR M085         
1 37742U 11033D   25326.35129318 -.00000118  00000+0 -78170-4 0  9999
2 37742  52.0113 102.7225 0000880 124.3058 255.8976 12.62266848663670
GLOBALSTAR M081         
1 37743U 11033E   25325.85515426 -.00000121  00000+0 -96239-4 0  9993
2 37743  51.9944 106.9041 0000747 110.4281  54.3981 12.62270588663752
GLOBALSTAR M089         
1 37744U 11033F   25326.42971912 -.00000110  00000+0 -37423-4 0  9992
2 37744  51.9943  59.3519 0000673  95.5399 342.5240 12.62272461664678
GLOBALSTAR M084         
1 38040U 11080A   25326.29953296 -.00000083  00000+0  11359-3 0  9991
2 38040  52.0020 287.1233 0000800  41.6171 103.3672 12.62265531642636
GLOBALSTAR M080         
1 38041U 11080B   25326.26968719 -.00000087  00000+0  93976-4 0  9995
2 38041  52.0071 288.8606 0000595 105.6855  33.4113 12.62271266642754
GLOBALSTAR M082         
1 38042U 11080C   25326.21144759 -.00000070  00000+0  18838-3 0  9996
2 38042  52.0075 244.5167 0000712  89.0909  75.0833 12.62265136643454
GLOBALSTAR M092         
1 38043U 11080D   25326.33011042 -.00000104  00000+0 -16387-5 0  9996
2 38043  52.0107 334.5413 0000341  74.2048  28.8859 12.62267688641921
GLOBALSTAR M090         
1 38044U 11080E   25326.15514256 -.00000064  00000+0  22379-3 0  9992
2 38044  52.0122 238.5778 0000662  65.2535  81.9345 12.62264413643568
GLOBALSTAR M086         
1 38045U 11080F   25326.17985736 -.00000065  00000+0  21539-3 0  9998
2 38045  51.9893 238.7690 0000946 352.1550 155.7806 12.62279895643514
GLOBALSTAR M097         
1 39072U 13005A   25325.70010997 -.00000093  00000+0  58669-4 0  9990
2 39072  52.0015 154.9451 0000839  92.0194 268.0769 12.62267605590706
GLOBALSTAR M093         
1 39073U 13005B   25325.99080532 -.00000102  00000+0  84351-5 0  9993
2 39073  52.0076 147.3289 0000695 104.4394 255.6550 12.62270744590695
GLOBALSTAR M094         
1 39074U 13005C   25326.22812050 -.00000106  00000+0 -13739-4 0  9995
2 39074  51.9969  60.9266 0000500 138.1573 221.9331 12.62264909592330
GLOBALSTAR M096         
1 39075U 13005D   25326.39960338 -.00000122  00000+0 -10185-3 0  9996
2 39075  52.0055 109.0421 0000809 120.7252 239.3695 12.62268931591277
GLOBALSTAR M078         
1 39076U 13005E   25325.97777816 -.00000132  00000+0 -15870-3 0  9994
2 39076  51.9859 194.6273 0001263 126.1213 233.9770 12.62271666589848
GLOBALSTAR M095         
1 39077U 13005F   25326.00390220 -.00000067  00000+0  20761-3 0  9991
2 39077  52.0059 191.8570 0000816 105.6798 254.4158 12.62266709589700
GLOBALSTAR M087         
1 52888U 22064A   25326.33356737 -.00000101  00000+0  16085-4 0  9996
2 52888  52.0011 332.2078 0000117 103.1838 256.9042 12.62260551165011
